[{"OBJECT_NAME":"STARLINK-4415","OBJECT_ID":"2022-099A","EPOCH":"2026-03-09T21:19:01.474464","MEAN_MOTION":15.05676635,"ECCENTRICITY":2.971e-5,"INCLINATION":97.6028,"RA_OF_ASC_NODE":191.4147,"ARG_OF_PERICENTER":207.4645,"MEAN_ANOMALY":152.6566,"EPHEMERIS_TYPE":0,"CLASSIFICATION_TYPE":"U","NORAD_CAT_ID":53465,"ELEMENT_SET_NO":999,"REV_AT_EPOCH":19606,"BSTAR":0.00068857013,"MEAN_MOTION_DOT":9.895e-5,"MEAN_MOTION_DDOT":0},{"OBJECT_NAME":"UNKNOWN","OBJECT_ID":"","EPOCH":"2026-03-08T12:59:39.172704","MEAN_MOTION":15.0131728,"ECCENTRICITY":0.00204305,"INCLINATION":86.3534,"RA_OF_ASC_NODE":358.469,"ARG_OF_PERICENTER":121.5673,"MEAN_ANOMALY":238.7558,"EPHEMERIS_TYPE":0,"CLASSIFICATION_TYPE":"U","NORAD_CAT_ID":270086,"ELEMENT_SET_NO":999,"REV_AT_EPOCH":9441,"BSTAR":0.0053525659,"MEAN_MOTION_DOT":0.00069778,"MEAN_MOTION_DDOT":0}]
